stk.v.4.0

BEGIN Ephemeris

NumberOfEphemerisPoints 366

Units  km/sec

EphemerisJ2000SciJedPosVel
2451341.5007429     -86562709.800390    -60989019.638866    -21959422.586535      20.717211     -25.260079     -12.675183
2451342.5007429     -84739081.833907    -63147324.717933    -23045816.992896      21.493571     -24.697480     -12.471214
2451343.5007429     -82849117.810115    -65256196.645857    -24114170.656423      22.252670     -24.115871     -12.257602
2451344.5007429     -80894334.086401    -67314013.555356    -25163657.961579      22.993933     -23.515731     -12.034523
2451345.5007429     -78876296.023740    -69319195.376879    -26193468.995461      23.716799     -22.897549     -11.802164
2451346.5007429     -76796616.649387    -71270204.981140    -27202810.146440      24.420726     -22.261830     -11.560716
2451347.5007429     -74656955.288126    -73165549.282682    -28190904.687263      25.105185     -21.609088     -11.310378
2451348.5007429     -72459016.163483    -75003780.303938    -29156993.342281      25.769664     -20.939852     -11.051355
2451349.5007429     -70204546.970289    -76783496.199294    -30100334.838496      26.413670     -20.254662     -10.783859
2451350.5007429     -67895337.419971    -78503342.238712    -31020206.440136      27.036724     -19.554068     -10.508107
2451351.5007429     -65533217.759976    -80162011.750491    -31915904.466498      27.638366     -18.838633     -10.224323
2451352.5007429     -63120057.268704    -81758247.022826    -32786744.792786      28.218152     -18.108927      -9.932736
2451353.5007429     -60657762.727345    -83290840.163832    -33632063.333740      28.775659     -17.365533      -9.633581
2451354.5007429     -58148276.869980    -84758633.919745    -34451216.509819      29.310478     -16.609041      -9.327097
2451355.5007429     -55593576.813330    -86160522.451084    -35243581.695758      29.822220     -15.840050      -9.013530
2451356.5007429     -52995672.467513    -87495452.066539    -36008557.651312      30.310517     -15.059168      -8.693129
2451357.5007429     -50356604.929152    -88762421.914456    -36745564.934038      30.775015     -14.267010      -8.366150
2451358.5007429     -47678444.858180    -89960484.631759    -37454046.293962      31.215383     -13.464200      -8.032850
2451359.5007429     -44963290.839679    -91088746.950245    -38133467.050009      31.631306     -12.651366      -7.693495
2451360.5007429     -42213267.732046    -92146370.260165    -38783315.448092      32.022490     -11.829144      -7.348350
2451361.5007429     -39430525.002812    -93132571.131094    -39403103.000755      32.388660     -10.998176      -6.997687
2451362.5007429     -36617235.053379    -94046621.790074    -39992364.808295      32.729561     -10.159108      -6.641782
2451363.5007429     -33775591.533966    -94887850.557076    -40550659.861309      33.044955      -9.312593      -6.280911
2451364.5007429     -30907807.649991    -95655642.237847    -41077571.324592      33.334627      -8.459285      -5.915357
2451365.5007429     -28016114.461161    -96349438.474234    -41572706.802377      33.598380      -7.599846      -5.545403
2451366.5007429     -25102759.174450    -96968738.052096    -42035698.584869      33.836037      -6.734937      -5.171338
2451367.5007429     -22170003.432205    -97513097.166963    -42466203.876076      34.047440      -5.865224      -4.793450
2451368.5007429     -19220121.596529    -97982129.647597    -42863905.002937      34.232453      -4.991376      -4.412031
2451369.5007429     -16255399.031130    -98375507.137654    -43228509.605749      34.390958      -4.114063      -4.027376
2451370.5007429     -13278130.381763    -98692959.235647    -43559750.809927      34.522857      -3.233956      -3.639780
2451371.5007429     -10290617.856400    -98934273.593452    -43857387.379133      34.628073      -2.351727      -3.249540
2451372.5007429      -7295169.506225    -99099295.973603    -44121203.849800      34.706549      -1.468050      -2.856957
2451373.5007429      -4294097.508535    -99187930.265640    -44351010.647131      34.758245      -0.583597      -2.462329
2451374.5007429      -1289716.452621    -99200138.461808    -44546644.182620      34.783146       0.300961      -2.065959
2451375.5007429       1715658.370345    -99135940.592399    -44707966.933168      34.781251       1.184951      -1.668149
2451376.5007429       4719712.672388    -98995414.621065    -44834867.501882      34.752583       2.067703      -1.269200
2451377.5007429       7720134.867768    -98778696.300440    -44927260.660643      34.697183       2.948551      -0.869417
2451378.5007429      10714617.764997    -98485978.988425    -44985087.374536      34.615111       3.826829      -0.469101
2451379.5007429      13700860.250878    -98117513.425491    -45008314.808251      34.506448       4.701873      -0.068558
2451380.5007429      16676568.965608    -97673607.473399    -44996936.314557      34.371292       5.573024       0.331911
2451381.5007429      19639459.968011    -97154625.815706    -44950971.404978      34.209763       6.439627       0.732003
2451382.5007429      22587260.390009    -96560989.620485    -44870465.702768      34.021998       7.301030       1.131416
2451383.5007429      25517710.079403    -95893176.165637    -44755490.878346      33.808153       8.156586       1.529850
2451384.5007429      28428563.230109    -95151718.427247    -44606144.567286      33.568405       9.005653       1.927003
2451385.5007429      31317589.998970    -94337204.631383    -44422550.271031      33.302947       9.847593       2.322577
2451386.5007429      34182578.108296    -93450277.769787    -44204857.240442      33.011991      10.681776       2.716276
2451387.5007429      37021334.433301    -92491635.079894    -43953240.342360      32.695770      11.507578       3.107803
2451388.5007429      39831686.573618    -91462027.489623    -43667899.909293      32.354530      12.324380       3.496864
2451389.5007429      42611484.408088    -90362259.027389    -43349061.572421      31.988540      13.131571       3.883169
2451390.5007429      45358601.632024    -89193186.197803    -42996976.078036      31.598083      13.928548       4.266427
2451391.5007429      48070937.276193    -87955717.323517    -42611919.087616      31.183463      14.714714       4.646350
2451392.5007429      50746417.206729    -86650811.853682    -42194190.961667      30.744997      15.489483       5.022656
2451393.5007429      53382995.605246    -85279479.639496    -41744116.527510      30.283022      16.252275       5.395061
2451394.5007429      55978656.428400    -83842780.177322    -41262044.831194      29.797891      17.002519       5.763287
2451395.5007429      58531414.846170    -82341821.819862    -40748348.873691      29.289973      17.739656       6.127058
2451396.5007429      61039318.658161    -80777760.955870    -40203425.331556      28.759655      18.463134       6.486102
2451397.5007429      63500449.687187    -79151801.158911    -39627694.262235      28.207338      19.172413       6.840151
2451398.5007429      65912925.149479    -77465192.305654    -39021598.794195      27.633440      19.866960       7.188938
2451399.5007429      68274899.000791    -75719229.664218    -38385604.802067      27.038393      20.546257       7.532203
2451400.5007429      70584563.257756    -73915252.953068    -37720200.566976      26.422646      21.209795       7.869688
2451401.5007429      72840149.293794    -72054645.370995    -37025896.422270      25.786661      21.857075       8.201141
2451402.5007429      75039929.108939    -70138832.598689    -36303224.384813      25.130916      22.487613       8.526311
2451403.5007429      77182216.572894    -68169281.772443    -35552737.772062      24.455902      23.100933       8.844956
2451404.5007429      79265368.640688    -66147500.430527    -34775010.805106      23.762126      23.696576       9.156836
2451405.5007429      81287786.540275    -64075035.432772    -33970638.197879      23.050106      24.274093       9.461715
2451406.5007429      83247916.931434    -61953471.853921    -33140234.732760      22.320375      24.833046       9.759364
2451407.5007429      85144253.035340    -59784431.851314    -32284434.822746      21.573479      25.373015      10.049558
2451408.5007429      86975335.734144    -57569573.507473    -31403892.060437      20.809974      25.893589      10.332079
2451409.5007429      88739754.639957    -55310589.648180    -30499278.754041      20.030431      26.394374      10.606712
2451410.5007429      90436149.132589    -53009206.636640    -29571285.450627      19.235433      26.874988      10.873248
2451411.5007429      92063209.365420    -50667183.144351    -28620620.446859      18.425571      27.335066      11.131486
2451412.5007429      93619677.238786    -48286308.899280    -27648009.287454      17.601452      27.774254      11.381229
2451413.5007429      95104347.340262    -45868403.412021    -26654194.251610      16.763689      28.192215      11.622286
2451414.5007429      96516067.851253    -43415314.680532    -25639933.827652      15.912909      28.588628      11.854472
2451415.5007429      97853741.419277    -40928917.874150    -24606002.176161      15.049746      28.963186      12.077609
2451416.5007429      99116325.995378    -38411113.997520    -23553188.581853      14.174846      29.315597      12.291525
2451417.5007429     100302835.636081    -35863828.535110    -22482296.894460      13.288862      29.645585      12.496056
2451418.5007429     101412341.269323    -33289010.076998    -21394144.958895      12.392457      29.952893      12.691042
2451419.5007429     102443971.423799    -30688628.926593    -20289564.034970      11.486302      30.237275      12.876332
2451420.5007429     103396912.921155    -28064675.690988    -19169398.206942      10.571074      30.498506      13.051780
2451421.5007429     104270411.530471    -25419159.854642    -18034503.783168       9.647461      30.736376      13.217249
End Ephemeris
